[{"OBJECT_NAME":"STARLINK-35039","OBJECT_ID":"2025-194T","EPOCH":"2026-03-09T12:40:07.448736","MEAN_MOTION":15.05635311,"ECCENTRICITY":0.00030853,"INCLINATION":97.6025,"RA_OF_ASC_NODE":284.239,"ARG_OF_PERICENTER":77.2772,"MEAN_ANOMALY":282.88,"EPHEMERIS_TYPE":0,"CLASSIFICATION_TYPE":"U","NORAD_CAT_ID":65451,"ELEMENT_SET_NO":999,"REV_AT_EPOCH":2962,"BSTAR":0.00094098596,"MEAN_MOTION_DOT":0.00013538,"MEAN_MOTION_DDOT":0},{"OBJECT_NAME":"FENGYUN 1C DEB","OBJECT_ID":"1999-025BBM","EPOCH":"2026-03-07T23:41:19.079232","MEAN_MOTION":14.72470246,"ECCENTRICITY":0.01607389,"INCLINATION":99.1941,"RA_OF_ASC_NODE":127.0213,"ARG_OF_PERICENTER":288.175,"MEAN_ANOMALY":194.9848,"EPHEMERIS_TYPE":0,"CLASSIFICATION_TYPE":"U","NORAD_CAT_ID":30971,"ELEMENT_SET_NO":999,"REV_AT_EPOCH":970,"BSTAR":0.00062783413,"MEAN_MOTION_DOT":4.813e-5,"MEAN_MOTION_DDOT":0}]
